{
  "64135": {
    "noradId": "64135",
    "tle": [
      "1 64135C 25111N   26018.17756944 -.00011733  00000+0 -91133-4 0   188",
      "2 64135  42.9998 278.7175 0001736 259.5868 344.5761 15.70848785    13"
    ]
  },
  "64136": {
    "noradId": "64136",
    "tle": [
      "1 64136C 25111P   26018.12548611 -.00011943  00000+0 -43271-3 0   186",
      "2 64136  43.0030   3.1197 0001244 264.1938 103.9089 15.27579576    12"
    ]
  },
  "64137": {
    "noradId": "64137",
    "tle": [
      "1 64137C 25111Q   26018.12826389  .00072480  00000+0  21108-2 0   183",
      "2 64137  42.9989   1.9919 0005346 128.2961 357.2994 15.34485501    16"
    ]
  },
  "64138": {
    "noradId": "64138",
    "tle": [
      "1 64138C 25111R   26018.12270833  .00007155  00000+0  25922-3 0   187",
      "2 64138  43.0004   3.6599 0001381 270.9391 222.5505 15.27564517    16"
    ]
  },
  "64139": {
    "noradId": "64139",
    "tle": [
      "1 64139C 25111S   26018.12479167 -.00007675  00000+0 -27806-3 0   181",
      "2 64139  43.0033   3.2578 0001267 276.5355  31.1553 15.27577165    17"
    ]
  },
  "64140": {
    "noradId": "64140",
    "tle": [
      "1 64140C 25111T   26018.12131944 -.00014576  00000+0 -52812-3 0   184",
      "2 64140  43.0036   3.4137 0001405 266.0724 325.8990 15.27581914    18"
    ]
  },
  "64141": {
    "noradId": "64141",
    "tle": [
      "1 64141C 25111U   26018.12131944 -.00004393  00000+0 -15916-3 0   185",
      "2 64141  43.0034   3.3793 0001430 256.1137 350.0124 15.27573603    15"
    ]
  },
  "64142": {
    "noradId": "64142",
    "tle": [
      "1 64142C 25111V   26018.12479167 -.00020468  00000+0 -74165-3 0   180",
      "2 64142  43.0031   3.2048 0001313 256.8587  72.0574 15.27585926    12"
    ]
  },
  "64143": {
    "noradId": "64143",
    "tle": [
      "1 64143C 25111W   26018.12618056  .00002730  00000+0  98945-4 0   186",
      "2 64143  43.0032   3.1449 0001295 246.3080 111.5133 15.27557614    12"
    ]
  },
  "64144": {
    "noradId": "64144",
    "tle": [
      "1 64144C 25111X   26018.12201389  .00027777  00000+0  10059-2 0   180",
      "2 64144  43.0040   3.4594 0001184 277.3808 297.1060 15.27556421    10"
    ]
  },
  "64145": {
    "noradId": "64145",
    "tle": [
      "1 64145C 25111Y   26018.12756944 -.00005818  00000+0 -21074-3 0   187",
      "2 64145  43.0023   3.5451 0001420 260.7621 294.8703 15.27580459    13"
    ]
  },
  "64146": {
    "noradId": "64146",
    "tle": [
      "1 64146C 25112A   26018.12409722  .00004768  00000+0  33117-3 0   180",
      "2 64146  97.6036  71.6457 0000634  94.8588  67.8827 15.05639726    12"
    ]
  },
  "64147": {
    "noradId": "64147",
    "tle": [
      "1 64147C 25112B   26018.12687500  .00003741  00000+0  25978-3 0   189",
      "2 64147  97.6055  71.7079 0001138  98.2029 214.5470 15.05640640    15"
    ]
  },
  "64148": {
    "noradId": "64148",
    "tle": [
      "1 64148C 25112C   26018.12756944  .00008994  00000+0  62450-3 0   180",
      "2 64148  97.6034  71.6303 0001695 107.0009  29.5208 15.05643793    12"
    ]
  },
  "64149": {
    "noradId": "64149",
    "tle": [
      "1 64149C 25112D   26018.12340278  .00006797  00000+0  47220-3 0   187",
      "2 64149  97.6033  71.6082 0001079  72.1351 356.9039 15.05628141    13"
    ]
  },
  "64150": {
    "noradId": "64150",
    "tle": [
      "1 64150C 25112E   26018.12618056  .00002291  00000+0  15907-3 0   183",
      "2 64150  97.6049  71.7255 0001584 119.8697 234.1107 15.05642613    11"
    ]
  },
  "64151": {
    "noradId": "64151",
    "tle": [
      "1 64151C 25112F   26018.12131944  .00001980  00000+0  13751-3 0   189",
      "2 64151  97.6032  71.7405 0001742  95.3913 277.2468 15.05643554    19"
    ]
  },
  "64152": {
    "noradId": "64152",
    "tle": [
      "1 64152C 25112G   26018.12409722  .00005896  00000+0  40948-3 0   180",
      "2 64152  97.6043  71.6665 0000823  91.3603 116.3623 15.05638824    10"
    ]
  },
  "64153": {
    "noradId": "64153",
    "tle": [
      "1 64153C 25112H   26018.12548611  .00006001  00000+0  41677-3 0   181",
      "2 64153  97.6052  71.6886 0001935  92.4400 167.7992 15.05639102    17"
    ]
  },
  "64154": {
    "noradId": "64154",
    "tle": [
      "1 64154C 25112J   26018.12270833  .00009542  00000+0  64837-3 0   186",
      "2 64154  97.6032  80.1805 0001449  70.0811 201.9468 15.06449734    10"
    ]
  },
  "64155": {
    "noradId": "64155",
    "tle": [
      "1 64155C 25112K   26018.12409722  .00007162  00000+0  49725-3 0   183",
      "2 64155  97.6051  71.7256 0001387  98.8419 228.7673 15.05650276    10"
    ]
  },
  "64156": {
    "noradId": "64156",
    "tle": [
      "1 64156C 25112L   26018.12201389  .00003056  00000+0  21225-3 0   186",
      "2 64156  97.6034  71.6471 0000810  87.9503  48.5025 15.05640887    19"
    ]
  },
  "64157": {
    "noradId": "64157",
    "tle": [
      "1 64157C 25112M   26018.12618056  .00006054  00000+0  42044-3 0   183",
      "2 64157  97.6050  71.6907 0001448 102.4612 146.5356 15.05638005    19"
    ]
  },
  "64158": {
    "noradId": "64158",
    "tle": [
      "1 64158C 25112N   26018.12618056  .00003923  00000+0  27243-3 0   180",
      "2 64158  97.6032  71.6113 0000712 109.3014 319.7322 15.05640082    19"
    ]
  },
  "64159": {
    "noradId": "64159",
    "tle": [
      "1 64159C 25112P   26018.12687500  .00006459  00000+0  44856-3 0   187",
      "2 64159  97.6034  71.6315 0000377 123.4925 354.2924 15.05640019    13"
    ]
  },
  "64160": {
    "noradId": "64160",
    "tle": [
      "1 64160C 25112Q   26018.12687500  .00017542  00000+0  12186-2 0   184",
      "2 64160  97.6040  71.6708 0001456  99.0111 108.6723 15.05618544    18"
    ]
  },
  "64161": {
    "noradId": "64161",
    "tle": [
      "1 64161C 25112R   26018.12479167  .00002653  00000+0  18422-3 0   180",
      "2 64161  97.6053  71.7093 0001386  88.7026 197.7595 15.05643027    13"
    ]
  },
  "64162": {
    "noradId": "64162",
    "tle": [
      "1 64162C 25112S   26018.12062500  .00004175  00000+0  28993-3 0   185",
      "2 64162  97.6036  71.7414 0001056  96.4632 257.4145 15.05641267    14"
    ]
  },
  "64163": {
    "noradId": "64163",
    "tle": [
      "1 64163C 25112T   26018.12479167  .00006604  00000+0  45863-3 0   181",
      "2 64163  97.6033  71.6432 0000752  95.1788  41.3227 15.05638090    12"
    ]
  },
  "64164": {
    "noradId": "64164",
    "tle": [
      "1 64164C 25112U   26018.12270833  .00009993  00000+0  69399-3 0   185",
      "2 64164  97.6039  71.6608 0000838  97.5241  72.6822 15.05634964    13"
    ]
  },
  "64165": {
    "noradId": "64165",
    "tle": [
      "1 64165C 25112V   26018.12687500  .00002596  00000+0  18030-3 0   187",
      "2 64165  97.6047  71.6849 0001068  93.9436 143.8223 15.05642324    17"
    ]
  },
  "64166": {
    "noradId": "64166",
    "tle": [
      "1 64166C 25112W   26018.12340278  .00001608  00000+0  11168-3 0   184",
      "2 64166  97.6054  71.7018 0000848 127.7236 136.2159 15.05643284    14"
    ]
  },
  "64167": {
    "noradId": "64167",
    "tle": [
      "1 64167C 25112X   26018.12270833  .00020760  00000+0  14419-2 0   185",
      "2 64167  97.6053  71.7211 0000754  75.1263 229.9386 15.05621578    15"
    ]
  },
  "64168": {
    "noradId": "64168",
    "tle": [
      "1 64168C 25112Y   26018.12687500 -.00012420  00000+0 -86278-3 0   188",
      "2 64168  97.6043  71.7443 0001336  88.9290 283.8496 15.05648861    16"
    ]
  },
  "64169": {
    "noradId": "64169",
    "tle": [
      "1 64169C 25112Z   26018.12409722  .00004118  00000+0  28601-3 0   186",
      "2 64169  97.6034  71.6221 0000629 142.1681 305.5766 15.05639748    17"
    ]
  },
  "64170": {
    "noradId": "64170",
    "tle": [
      "1 64170C 25113A   26018.12548611  .00021145  00000+0  71265-3 0   183",
      "2 64170  53.1604 325.8949 0001272  98.2588 313.4998 15.30171455    11"
    ]
  },
  "64171": {
    "noradId": "64171",
    "tle": [
      "1 64171C 25113B   26018.12201389  .00011410  00000+0  38455-3 0   180",
      "2 64171  53.1597 325.7016 0001355  78.1648  59.1624 15.30180901    19"
    ]
  },
  "64172": {
    "noradId": "64172",
    "tle": [
      "1 64172C 25113C   26018.12340278 -.00003305  00000+0 -11138-3 0   187",
      "2 64172  53.1600 326.0503 0001318  82.1279 242.5373 15.30198214    19"
    ]
  },
  "64173": {
    "noradId": "64173",
    "tle": [
      "1 64173C 25113D   26018.12270833 -.00004653  00000+0 -15675-3 0   184",
      "2 64173  53.1596 325.7081 0001173  90.2823  45.0232 15.30208086    14"
    ]
  },
  "64174": {
    "noradId": "64174",
    "tle": [
      "1 64174C 25113E   26018.12201389 -.00067819  00000+0 -22872-2 0   184",
      "2 64174  53.1609 325.9750 0001454  96.2313 261.5954 15.30238301    16"
    ]
  },
  "64175": {
    "noradId": "64175",
    "tle": [
      "1 64175C 25113F   26018.12618056  .00000029  00000+0  98552-6 0   188",
      "2 64175  53.1594 326.1253 0001261  89.5356 203.9054 15.30197138    12"
    ]
  },
  "64176": {
    "noradId": "64176",
    "tle": [
      "1 64176C 25113G   26018.12548611  .00007103  00000+0  23932-3 0   185",
      "2 64176  53.1593 325.5429 0001249  84.0376 142.2186 15.30192192    14"
    ]
  },
  "64177": {
    "noradId": "64177",
    "tle": [
      "1 64177C 25113H   26018.12062500  .00004630  00000+0  15603-3 0   182",
      "2 64177  53.1592 326.2346 0001215  97.6587 124.4468 15.30191758    19"
    ]
  },
  "64178": {
    "noradId": "64178",
    "tle": [
      "1 64178C 25113J   26018.12618056  .00004685  00000+0  15788-3 0   180",
      "2 64178  53.1603 325.9891 0001446  82.7923 280.4546 15.30190181    18"
    ]
  },
  "64179": {
    "noradId": "64179",
    "tle": [
      "1 64179C 25113K   26018.12687500  .00031531  00000+0  10634-2 0   185",
      "2 64179  53.1593 325.5974 0001447  71.4010 133.5030 15.30139313    14"
    ]
  }
}